[{"OBJECT_NAME":"XINZHENGCHENG-01","OBJECT_ID":"2026-066A","EPOCH":"2026-04-28T21:10:08.234400","MEAN_MOTION":14.88362511,"ECCENTRICITY":0.0027439,"INCLINATION":84.9642,"RA_OF_ASC_NODE":259.1082,"ARG_OF_PERICENTER":67.3331,"MEAN_ANOMALY":293.079,"EPHEMERIS_TYPE":0,"CLASSIFICATION_TYPE":"U","NORAD_CAT_ID":68412,"ELEMENT_SET_NO":999,"REV_AT_EPOCH":439,"BSTAR":5.7419e-5,"MEAN_MOTION_DOT":5.65e-6,"MEAN_MOTION_DDOT":0},{"OBJECT_NAME":"TRANSPORTER-16 OBJECT A","OBJECT_ID":"2026-067A","EPOCH":"2026-04-28T19:44:10.112064","MEAN_MOTION":15.1883145,"ECCENTRICITY":0.0004232,"INCLINATION":97.4511,"RA_OF_ASC_NODE":78.0543,"ARG_OF_PERICENTER":88.2066,"MEAN_ANOMALY":271.9653,"EPHEMERIS_TYPE":0,"CLASSIFICATION_TYPE":"U","NORAD_CAT_ID":68416,"ELEMENT_SET_NO":999,"REV_AT_EPOCH":445,"BSTAR":0.00038682,"MEAN_MOTION_DOT":7.992e-5,"MEAN_MOTION_DDOT":0},{"OBJECT_NAME":"JACK-002","OBJECT_ID":"2026-067B","EPOCH":"2026-04-28T19:45:52.642944","MEAN_MOTION":15.18762183,"ECCENTRICITY":0.0004124,"INCLINATION":97.4531,"RA_OF_ASC_NODE":78.06,"ARG_OF_PERICENTER":90.65,"MEAN_ANOMALY":269.5207,"EPHEMERIS_TYPE":0,"CLASSIFICATION_TYPE":"U","NORAD_CAT_ID":68417,"ELEMENT_SET_NO":999,"REV_AT_EPOCH":445,"BSTAR":0.00036908,"MEAN_MOTION_DOT":7.606e-5,"MEAN_MOTION_DDOT":0},{"OBJECT_NAME":"OPTISAT","OBJECT_ID":"2026-067C","EPOCH":"2026-04-28T19:48:29.071008","MEAN_MOTION":15.18592429,"ECCENTRICITY":0.0004277,"INCLINATION":97.455,"RA_OF_ASC_NODE":78.0649,"ARG_OF_PERICENTER":99.9265,"MEAN_ANOMALY":260.2452,"EPHEMERIS_TYPE":0,"CLASSIFICATION_TYPE":"U","NORAD_CAT_ID":68418,"ELEMENT_SET_NO":999,"REV_AT_EPOCH":445,"BSTAR":0.00028749,"MEAN_MOTION_DOT":5.88e-5,"MEAN_MOTION_DDOT":0},{"OBJECT_NAME":"FEMTO-1","OBJECT_ID":"2026-067D","EPOCH":"2026-04-28T19:48:07.757856","MEAN_MOTION":15.18602839,"ECCENTRICITY":0.0003575,"INCLINATION":97.4507,"RA_OF_ASC_NODE":78.0492,"ARG_OF_PERICENTER":83.8098,"MEAN_ANOMALY":276.3543,"EPHEMERIS_TYPE":0,"CLASSIFICATION_TYPE":"U","NORAD_CAT_ID":68419,"ELEMENT_SET_NO":999,"REV_AT_EPOCH":445,"BSTAR":0.00020127,"MEAN_MOTION_DOT":4.096e-5,"MEAN_MOTION_DDOT":0},{"OBJECT_NAME":"ERMIS-2","OBJECT_ID":"2026-067E","EPOCH":"2026-04-28T19:45:58.836096","MEAN_MOTION":15.18843884,"ECCENTRICITY":0.0003564,"INCLINATION":97.4451,"RA_OF_ASC_NODE":78.0322,"ARG_OF_PERICENTER":78.3253,"MEAN_ANOMALY":281.8381,"EPHEMERIS_TYPE":0,"CLASSIFICATION_TYPE":"U","NORAD_CAT_ID":68420,"ELEMENT_SET_NO":999,"REV_AT_EPOCH":445,"BSTAR":0.00052688,"MEAN_MOTION_DOT":0.00010917,"MEAN_MOTION_DDOT":0},{"OBJECT_NAME":"TRANSPORTER-16 OBJECT F","OBJECT_ID":"2026-067F","EPOCH":"2026-04-28T19:52:57.489024","MEAN_MOTION":15.18439213,"ECCENTRICITY":0.000288,"INCLINATION":97.4482,"RA_OF_ASC_NODE":78.0361,"ARG_OF_PERICENTER":80.4888,"MEAN_ANOMALY":279.6671,"EPHEMERIS_TYPE":0,"CLASSIFICATION_TYPE":"U","NORAD_CAT_ID":68421,"ELEMENT_SET_NO":999,"REV_AT_EPOCH":445,"BSTAR":0.0002538,"MEAN_MOTION_DOT":5.159e-5,"MEAN_MOTION_DDOT":0},{"OBJECT_NAME":"TRANSPORTER-16 OBJECT G","OBJECT_ID":"2026-067G","EPOCH":"2026-04-28T19:53:29.164992","MEAN_MOTION":15.18470283,"ECCENTRICITY":0.000274,"INCLINATION":97.4445,"RA_OF_ASC_NODE":78.0227,"ARG_OF_PERICENTER":80.7118,"MEAN_ANOMALY":279.4426,"EPHEMERIS_TYPE":0,"CLASSIFICATION_TYPE":"U","NORAD_CAT_ID":68422,"ELEMENT_SET_NO":999,"REV_AT_EPOCH":445,"BSTAR":0.00034447,"MEAN_MOTION_DOT":7.034e-5,"MEAN_MOTION_DDOT":0},{"OBJECT_NAME":"SPOQC","OBJECT_ID":"2026-067H","EPOCH":"2026-04-28T19:55:09.701760","MEAN_MOTION":15.18384074,"ECCENTRICITY":0.0002688,"INCLINATION":97.4469,"RA_OF_ASC_NODE":78.0292,"ARG_OF_PERICENTER":91.2345,"MEAN_ANOMALY":268.9197,"EPHEMERIS_TYPE":0,"CLASSIFICATION_TYPE":"U","NORAD_CAT_ID":68423,"ELEMENT_SET_NO":999,"REV_AT_EPOCH":445,"BSTAR":0.00030154,"MEAN_MOTION_DOT":6.133e-5,"MEAN_MOTION_DDOT":0},{"OBJECT_NAME":"SPACEVAN-002","OBJECT_ID":"2026-067J","EPOCH":"2026-04-28T20:09:37.847232","MEAN_MOTION":15.1788053,"ECCENTRICITY":0.0001743,"INCLINATION":97.4487,"RA_OF_ASC_NODE":78.0224,"ARG_OF_PERICENTER":153.7057,"MEAN_ANOMALY":206.4265,"EPHEMERIS_TYPE":0,"CLASSIFICATION_TYPE":"U","NORAD_CAT_ID":68424,"ELEMENT_SET_NO":999,"REV_AT_EPOCH":445,"BSTAR":0.00032986,"MEAN_MOTION_DOT":6.618e-5,"MEAN_MOTION_DDOT":0},{"OBJECT_NAME":"ERMIS-3","OBJECT_ID":"2026-067K","EPOCH":"2026-04-28T19:57:32.253120","MEAN_MOTION":15.18295324,"ECCENTRICITY":0.0003132,"INCLINATION":97.4553,"RA_OF_ASC_NODE":78.058,"ARG_OF_PERICENTER":114.5953,"MEAN_ANOMALY":245.5607,"EPHEMERIS_TYPE":0,"CLASSIFICATION_TYPE":"U","NORAD_CAT_ID":68425,"ELEMENT_SET_NO":999,"REV_AT_EPOCH":445,"BSTAR":0.00029918,"MEAN_MOTION_DOT":6.069e-5,"MEAN_MOTION_DDOT":0},{"OBJECT_NAME":"TRANSPORTER-16 OBJECT L","OBJECT_ID":"2026-067L","EPOCH":"2026-04-28T19:52:09.219072","MEAN_MOTION":15.1866335,"ECCENTRICITY":0.0003464,"INCLINATION":97.4512,"RA_OF_ASC_NODE":78.0486,"ARG_OF_PERICENTER":119.5377,"MEAN_ANOMALY":240.6203,"EPHEMERIS_TYPE":0,"CLASSIFICATION_TYPE":"U","NORAD_CAT_ID":68426,"ELEMENT_SET_NO":999,"REV_AT_EPOCH":445,"BSTAR":0.0006049,"MEAN_MOTION_DOT":0.00012481,"MEAN_MOTION_DDOT":0},{"OBJECT_NAME":"TRANSPORTER-16 OBJECT M","OBJECT_ID":"2026-067M","EPOCH":"2026-04-28T19:54:22.597344","MEAN_MOTION":15.18517575,"ECCENTRICITY":0.0003253,"INCLINATION":97.4513,"RA_OF_ASC_NODE":78.0469,"ARG_OF_PERICENTER":119.0258,"MEAN_ANOMALY":241.1302,"EPHEMERIS_TYPE":0,"CLASSIFICATION_TYPE":"U","NORAD_CAT_ID":68427,"ELEMENT_SET_NO":999,"REV_AT_EPOCH":445,"BSTAR":0.00049633,"MEAN_MOTION_DOT":0.00010183,"MEAN_MOTION_DDOT":0},{"OBJECT_NAME":"OUT OF THE BOX (OOTB)","OBJECT_ID":"2026-067N","EPOCH":"2026-04-28T20:01:29.568000","MEAN_MOTION":15.18123338,"ECCENTRICITY":0.0002798,"INCLINATION":97.4536,"RA_OF_ASC_NODE":78.0485,"ARG_OF_PERICENTER":126.5821,"MEAN_ANOMALY":233.5671,"EPHEMERIS_TYPE":0,"CLASSIFICATION_TYPE":"U","NORAD_CAT_ID":68428,"ELEMENT_SET_NO":999,"REV_AT_EPOCH":445,"BSTAR":0.00023405,"MEAN_MOTION_DOT":4.709e-5,"MEAN_MOTION_DDOT":0},{"OBJECT_NAME":"TRANSPORTER-16 OBJECT P","OBJECT_ID":"2026-067P","EPOCH":"2026-04-28T20:01:23.432736","MEAN_MOTION":15.18337608,"ECCENTRICITY":0.0002911,"INCLINATION":97.4477,"RA_OF_ASC_NODE":78.0258,"ARG_OF_PERICENTER":154.0578,"MEAN_ANOMALY":206.0803,"EPHEMERIS_TYPE":0,"CLASSIFICATION_TYPE":"U","NORAD_CAT_ID":68429,"ELEMENT_SET_NO":999,"REV_AT_EPOCH":445,"BSTAR":0.00057298,"MEAN_MOTION_DOT":0.00011707,"MEAN_MOTION_DDOT":0}]
