XINZHENGCHENG-01        
1 68412U 26066A   26118.88203975  .00000565  00000+0  57419-4 0  9996
2 68412  84.9642 259.1082 0027439  67.3331 293.0790 14.88362511  4396
TRANSPORTER-16 OBJECT A 
1 68416U 26067A   26118.82233926  .00007992  00000+0  38682-3 0  9995
2 68416  97.4511  78.0543 0004232  88.2066 271.9653 15.18831450  4454
JACK-002                
1 68417U 26067B   26118.82352596  .00007606  00000+0  36908-3 0  9992
2 68417  97.4531  78.0600 0004124  90.6500 269.5207 15.18762183  4455
OPTISAT                 
1 68418U 26067C   26118.82533647  .00005880  00000+0  28749-3 0  9997
2 68418  97.4550  78.0649 0004277  99.9265 260.2452 15.18592429  4453
FEMTO-1                 
1 68419U 26067D   26118.82508979  .00004096  00000+0  20127-3 0  9998
2 68419  97.4507  78.0492 0003575  83.8098 276.3543 15.18602839  4454
ERMIS-2                 
1 68420U 26067E   26118.82359764  .00010917  00000+0  52688-3 0  9992
2 68420  97.4451  78.0322 0003564  78.3253 281.8381 15.18843884  4454
TRANSPORTER-16 OBJECT F 
1 68421U 26067F   26118.82844316  .00005159  00000+0  25380-3 0  9996
2 68421  97.4482  78.0361 0002880  80.4888 279.6671 15.18439213  4454
TRANSPORTER-16 OBJECT G 
1 68422U 26067G   26118.82880978  .00007034  00000+0  34447-3 0  9999
2 68422  97.4445  78.0227 0002740  80.7118 279.4426 15.18470283  4457
SPOQC                   
1 68423U 26067H   26118.82997340  .00006133  00000+0  30154-3 0  9992
2 68423  97.4469  78.0292 0002688  91.2345 268.9197 15.18384074  4456
SPACEVAN-002            
1 68424U 26067J   26118.84002138  .00006618  00000+0  32986-3 0  9990
2 68424  97.4487  78.0224 0001743 153.7057 206.4265 15.17880530  4457
ERMIS-3                 
1 68425U 26067K   26118.83162330  .00006069  00000+0  29918-3 0  9992
2 68425  97.4553  78.0580 0003132 114.5953 245.5607 15.18295324  4457
TRANSPORTER-16 OBJECT L 
1 68426U 26067L   26118.82788448  .00012481  00000+0  60490-3 0  9991
2 68426  97.4512  78.0486 0003464 119.5377 240.6203 15.18663350  4457
TRANSPORTER-16 OBJECT M 
1 68427U 26067M   26118.82942821  .00010183  00000+0  49633-3 0  9992
2 68427  97.4513  78.0469 0003253 119.0258 241.1302 15.18517575  4452
OUT OF THE BOX (OOTB)   
1 68428U 26067N   26118.83437000  .00004709  00000+0  23405-3 0  9998
2 68428  97.4536  78.0485 0002798 126.5821 233.5671 15.18123338  4452
TRANSPORTER-16 OBJECT P 
1 68429U 26067P   26118.83429899  .00011707  00000+0  57298-3 0  9999
2 68429  97.4477  78.0258 0002911 154.0578 206.0803 15.18337608  4456
